HIERARCHY
ROOT Hips
{
  OFFSET 0 0 0
  CHANNELS 6 Xposition Yposition Zposition Zrotation Xrotation Yrotation
  JOINT LeftUpLeg
  {
    OFFSET 0 0 0
    CHANNELS 3 Zrotation Xrotation Yrotation
    JOINT LeftLeg
    {
      OFFSET 0 0 0
      CHANNELS 3 Zrotation Xrotation Yrotation
      JOINT LeftFoot
      {
        OFFSET 0 0 0
        CHANNELS 3 Zrotation Xrotation Yrotation
        End Site
        {
          OFFSET 0 0 0
        }
      }
    }
  }
  JOINT RightUpLeg
  {
    OFFSET 0 0 0
    CHANNELS 3 Zrotation Xrotation Yrotation
    JOINT RightLeg
    {
      OFFSET 0 0 0
      CHANNELS 3 Zrotation Xrotation Yrotation
      JOINT RightFoot
      {
        OFFSET 0 0 0
        CHANNELS 3 Zrotation Xrotation Yrotation
        End Site
        {
          OFFSET 0 0 0
        }
      }
    }
  }
}
MOTION
Frames: 100
Frame Time: 0.007
0 -127.455 0 0 0 0 -1.717 1.673 0 0 51.733 0 0 19 0 5.118 -38.287 0 0 11.787 0 0 -4.216 0
-3.603 -119.578 -2.023 0 0 0 -1.522 0.959 0 0 55.852 0 0 18.974 0 5.326 -37.631 0 0 12.939 0 0 -3.541 0
-8.194 -111.383 -1.229 0 0 0 -1.257 0.201 0 0 59.969 0 0 18.944 0 5.602 -37.061 0 0 14.588 0 0 -2.778 0
-13.687 -103.652 1.791 0 0 0 -0.927 -0.623 0 0 64.063 0 0 18.852 0 5.941 -36.587 0 0 16.685 0 0 -2.125 0
-19.901 -96.846 6.35 0 0 0 -0.531 -1.545 0 0 68.116 0 0 18.647 0 6.332 -36.222 0 0 19.187 0 0 -1.826 0
-26.702 -91.375 11.666 0 0 0 -0.061 -2.597 0 0 72.112 0 0 18.29 0 6.769 -35.982 0 0 22.041 0 0 -2.067 0
-34.024 -87.552 16.96 0 0 0 0.495 -3.81 0 0 76.026 0 0 17.765 0 7.251 -35.873 0 0 25.168 0 0 -2.899 0
-41.942 -85.539 21.597 0 0 0 1.151 -5.214 0 0 79.834 0 0 17.072 0 7.787 -35.878 0 0 28.449 0 0 -4.257 0
-50.524 -85.252 24.967 0 0 0 1.911 -6.828 0 0 83.5 0 0 16.228 0 8.381 -35.952 0 0 31.725 0 0 -6.009 0
-59.828 -86.297 26.664 0 0 0 2.76 -8.667 0 0 86.991 0 0 15.263 0 9.024 -36.019 0 0 34.82 0 0 -8.008 0
-69.116 -88.019 26.943 0 0 0 3.657 -10.738 0 0 90.267 0 0 14.207 0 9.676 -35.99 0 0 37.57 0 0 -10.117 0
-77.638 -89.086 26.139 0 0 0 4.54 -13.024 0 0 93.293 0 0 13.095 0 10.278 -35.778 0 0 39.855 0 0 -12.227 0
-84.485 -88.704 24.814 0 0 0 5.343 -15.51 0 0 96.035 0 0 11.957 0 10.756 -35.313 0 0 41.617 0 0 -14.261 0
-88.784 -87.699 23.09 0 0 0 5.998 -18.156 0 0 98.467 0 0 10.822 0 11.042 -34.589 0 0 42.854 0 0 -16.17 0
-90.039 -85.729 21.453 0 0 0 6.462 -20.918 0 0 100.555 0 0 9.717 0 11.097 -33.597 0 0 43.605 0 0 -17.925 0
-88.014 -82.735 20.143 0 0 0 6.708 -23.738 0 0 102.274 0 0 8.66 0 10.905 -32.358 0 0 43.93 0 0 -19.508 0
-82.907 -78.867 19.117 0 0 0 6.74 -26.56 0 0 103.588 0 0 7.666 0 10.485 -30.91 0 0 43.883 0 0 -20.901 0
-75.279 -74.3 18.409 0 0 0 6.578 -29.335 0 0 104.472 0 0 6.742 0 9.882 -29.28 0 0 43.508 0 0 -22.079 0
-65.932 -69.045 17.92 0 0 0 6.26 -32.021 0 0 104.909 0 0 5.887 0 9.158 -27.498 0 0 42.838 0 0 -23.013 0
-55.697 -63.1 17.575 0 0 0 5.823 -34.591 0 0 104.892 0 0 5.098 0 8.376 -25.589 0 0 41.9 0 0 -23.667 0
-45.257 -57.309 17.294 0 0 0 5.297 -37.024 0 0 104.423 0 0 4.373 0 7.586 -23.575 0 0 40.716 0 0 -24 0
-35.116 -51.865 17.021 0 0 0 4.711 -39.298 0 0 103.513 0 0 3.702 0 6.824 -21.475 0 0 39.307 0 0 -23.973 0
-25.383 -46.43 16.708 0 0 0 4.073 -41.402 0 0 102.185 0 0 3.078 0 6.097 -19.307 0 0 37.694 0 0 -23.546 0
-16.033 -40.172 16.334 0 0 0 3.392 -43.325 0 0 100.463 0 0 2.494 0 5.403 -17.086 0 0 35.897 0 0 -22.687 0
-6.868 -33.626 15.896 0 0 0 2.675 -45.047 0 0 98.376 0 0 1.948 0 4.729 -14.829 0 0 33.941 0 0 -21.376 0
2.343 -26.787 15.436 0 0 0 1.923 -46.572 0 0 95.95 0 0 1.443 0 4.06 -12.55 0 0 31.851 0 0 -19.601 0
11.82 -19.365 14.847 0 0 0 1.145 -47.898 0 0 93.202 0 0 0.987 0 3.383 -10.276 0 0 29.659 0 0 -17.37 0
21.633 -10.6 14.07 0 0 0 0.353 -49.026 0 0 90.155 0 0 0.585 0 2.695 -8.034 0 0 27.401 0 0 -14.703 0
31.668 -1.214 13.015 0 0 0 -0.437 -49.96 0 0 86.818 0 0 0.233 0 2.005 -5.856 0 0 25.12 0 0 -11.64 0
39.141 -1.069 12.803 0 0 0 -1.205 -50.707 0 0 83.204 0 0 -0.081 0 1.327 -3.776 0 0 22.869 0 0 -8.243 0
45.331 -1.404 13.012 0 0 0 -1.93 -51.274 0 0 79.331 0 0 -0.377 0 0.682 -1.831 0 0 20.71 0 0 -4.594 0
50.882 -2.22 13.433 0 0 0 -2.6 -51.676 0 0 75.221 0 0 -0.676 0 0.092 -0.054 0 0 18.713 0 0 -0.798 0
56.111 -3.517 13.958 0 0 0 -3.196 -51.929 0 0 70.904 0 0 -0.999 0 -0.427 1.513 0 0 16.954 0 0 3.023 0
61.181 -5.294 14.537 0 0 0 -3.7 -52.023 0 0 66.406 0 0 -1.362 0 -0.848 2.867 0 0 15.505 0 0 6.738 0
66.17 -7.552 15.142 0 0 0 -4.13 -51.982 0 0 61.753 0 0 -1.772 0 -1.163 3.994 0 0 14.434 0 0 10.211 0
71.12 -10.291 15.76 0 0 0 -4.444 -51.764 0 0 56.974 0 0 -2.227 0 -1.382 4.845 0 0 13.798 0 0 13.32 0
76.049 -13.511 16.385 0 0 0 -4.653 -51.358 0 0 52.099 0 0 -2.708 0 -1.477 5.477 0 0 13.64 0 0 15.967 0
80.969 -17.211 17.013 0 0 0 -4.776 -50.781 0 0 47.168 0 0 -3.188 0 -1.42 5.929 0 0 13.989 0 0 18.094 0
85.883 -21.391 17.642 0 0 0 -4.832 -50.052 0 0 42.228 0 0 -3.633 0 -1.248 6.214 0 0 14.853 0 0 19.679 0
90.795 -26.053 18.273 0 0 0 -4.84 -49.176 0 0 37.342 0 0 -4.012 0 -0.956 6.331 0 0 16.224 0 0 20.739 0
95.706 -31.195 18.903 0 0 0 -4.821 -48.176 0 0 32.586 0 0 -4.31 0 -0.586 6.31 0 0 18.08 0 0 21.322 0
100.616 -36.818 19.534 0 0 0 -4.787 -47.087 0 0 28.049 0 0 -4.527 0 -0.156 6.165 0 0 20.386 0 0 21.497 0
105.525 -42.921 20.166 0 0 0 -4.754 -45.936 0 0 23.834 0 0 -4.677 0 0.32 5.9 0 0 23.099 0 0 21.351 0
110.435 -49.505 20.797 0 0 0 -4.733 -44.758 0 0 20.045 0 0 -4.78 0 0.795 5.541 0 0 26.17 0 0 20.985 0
115.345 -56.57 21.428 0 0 0 -4.721 -43.579 0 0 16.777 0 0 -4.849 0 1.244 5.094 0 0 29.55 0 0 20.498 0
120.254 -64.116 22.059 0 0 0 -4.722 -42.429 0 0 14.106 0 0 -4.884 0 1.645 4.573 0 0 33.187 0 0 19.978 0
125.163 -72.142 22.691 0 0 0 -4.747 -41.335 0 0 12.083 0 0 -4.875 0 1.975 3.995 0 0 37.034 0 0 19.49 0
130.073 -80.649 23.322 0 0 0 -4.795 -40.311 0 0 10.732 0 0 -4.796 0 2.213 3.366 0 0 41.044 0 0 19.071 0
134.982 -89.636 23.953 0 0 0 -4.877 -39.371 0 0 10.052 0 0 -4.607 0 2.344 2.695 0 0 45.172 0 0 18.731 0
139.892 -99.104 24.584 0 0 0 -5.006 -38.525 0 0 10.025 0 0 -4.255 0 2.37 1.989 0 0 49.381 0 0 18.461 0
144.801 -109.053 25.216 0 0 0 -5.19 -37.783 0 0 10.612 0 0 -3.695 0 2.292 1.249 0 0 53.635 0 0 18.233 0
149.71 -119.483 25.847 0 0 0 -5.451 -37.159 0 0 11.82 0 0 -2.898 0 2.128 0.462 0 0 57.907 0 0 18.01 0
154.62 -111.935 26.478 0 0 0 -5.765 -36.642 0 0 13.533 0 0 -1.977 0 1.885 -0.383 0 0 62.173 0 0 17.753 0
160.226 -104.439 29.108 0 0 0 -6.127 -36.239 0 0 15.696 0 0 -1.129 0 1.574 -1.31 0 0 66.413 0 0 17.422 0
166.384 -97.874 33.14 0 0 0 -6.529 -35.954 0 0 18.258 0 0 -0.62 0 1.208 -2.358 0 0 70.613 0 0 16.986 0
172.748 -92.544 37.962 0 0 0 -6.949 -35.789 0 0 21.166 0 0 -0.657 0 0.776 -3.557 0 0 74.752 0 0 16.428 0
179.215 -88.745 42.834 0 0 0 -7.384 -35.75 0 0 24.344 0 0 -1.316 0 0.27 -4.932 0 0 78.81 0 0 15.744 0
185.785 -86.609 47.146 0 0 0 -7.837 -35.818 0 0 27.675 0 0 -2.546 0 -0.324 -6.506 0 0 82.762 0 0 14.941 0
192.735 -86.026 50.174 0 0 0 -8.311 -35.943 0 0 31.006 0 0 -4.221 0 -1.006 -8.295 0 0 86.57 0 0 14.038 0
199.825 -86.623 51.928 0 0 0 -8.803 -36.048 0 0 34.161 0 0 -6.19 0 -1.755 -10.296 0 0 90.199 0 0 13.053 0
206.461 -87.069 52.742 0 0 0 -9.273 -36.029 0 0 36.98 0 0 -8.309 0 -2.531 -12.502 0 0 93.601 0 0 12.011 0
212.307 -86.371 52.709 0 0 0 -9.691 -35.814 0 0 39.343 0 0 -10.455 0 -3.269 -14.886 0 0 96.729 0 0 10.939 0
216.731 -85.591 52.1 0 0 0 -10.005 -35.352 0 0 41.188 0 0 -12.534 0 -3.898 -17.427 0 0 99.544 0 0 9.86 0
218.928 -84.184 51.385 0 0 0 -10.151 -34.61 0 0 42.51 0 0 -14.485 0 -4.388 -20.112 0 0 102.011 0 0 8.798 0
218.368 -81.978 50.649 0 0 0 -10.09 -33.606 0 0 43.345 0 0 -16.282 0 -4.697 -22.895 0 0 104.098 0 0 7.771 0
214.815 -78.969 49.972 0 0 0 -9.807 -32.37 0 0 43.749 0 0 -17.912 0 -4.817 -25.727 0 0 105.778 0 0 6.791 0
208.424 -75.278 49.376 0 0 0 -9.317 -30.935 0 0 43.776 0 0 -19.364 0 -4.768 -28.56 0 0 107.029 0 0 5.864 0
199.79 -71.093 48.783 0 0 0 -8.667 -29.336 0 0 43.471 0 0 -20.619 0 -4.572 -31.343 0 0 107.833 0 0 4.995 0
189.68 -66.56 48.151 0 0 0 -7.915 -27.6 0 0 42.869 0 0 -21.645 0 -4.262 -34.031 0 0 108.175 0 0 4.187 0
178.925 -61.544 47.485 0 0 0 -7.122 -25.745 0 0 41.995 0 0 -22.4 0 -3.866 -36.589 0 0 108.05 0 0 3.441 0
168.158 -56.082 46.839 0 0 0 -6.334 -23.783 0 0 40.87 0 0 -22.841 0 -3.403 -38.985 0 0 107.462 0 0 2.757 0
157.797 -50.927 46.254 0 0 0 -5.581 -21.726 0 0 39.514 0 0 -22.925 0 -2.887 -41.199 0 0 106.424 0 0 2.131 0
147.992 -45.776 45.804 0 0 0 -4.873 -19.585 0 0 37.951 0 0 -22.615 0 -2.326 -43.217 0 0 104.956 0 0 1.556 0
138.704 -39.891 45.54 0 0 0 -4.207 -17.373 0 0 36.206 0 0 -21.883 0 -1.724 -45.032 0 0 103.088 0 0 1.028 0
129.745 -33.6 45.405 0 0 0 -3.571 -15.111 0 0 34.305 0 0 -20.711 0 -1.083 -46.643 0 0 100.851 0 0 0.549 0
120.885 -27.131 45.297 0 0 0 -2.95 -12.824 0 0 32.276 0 0 -19.09 0 -0.405 -48.053 0 0 98.279 0 0 0.13 0
112.007 -19.723 45.074 0 0 0 -2.337 -10.54 0 0 30.148 0 0 -17.026 0 0.303 -49.272 0 0 95.394 0 0 -0.218 0
103.021 -11.331 44.582 0 0 0 -1.727 -8.29 0 0 27.953 0 0 -14.538 0 1.026 -50.306 0 0 92.228 0 0 -0.494 0
94.037 -2.344 43.691 0 0 0 -1.128 -6.105 0 0 25.728 0 0 -11.662 0 1.747 -51.161 0 0 88.795 0 0 -0.712 0
85.22 6.583 42.336 0 0 0 -0.551 -4.015 0 0 23.519 0 0 -8.451 0 2.442 -51.846 0 0 85.114 0 0 -0.9 0
76.835 15.494 40.39 0 0 0 -0.013 -2.052 0 0 21.375 0 0 -4.976 0 3.086 -52.364 0 0 81.205 0 0 -1.088 0
70.841 12.913 38.405 0 0 0 0.463 -0.244 0 0 19.358 0 0 -1.33 0 3.657 -52.717 0 0 77.083 0 0 -1.308 0
66.043 9.851 36.401 0 0 0 0.872 1.392 0 0 17.536 0 0 2.381 0 4.137 -52.905 0 0 72.762 0 0 -1.577 0
61.843 6.309 34.387 0 0 0 1.185 2.822 0 0 15.981 0 0 6.035 0 4.517 -52.927 0 0 68.256 0 0 -1.906 0
57.941 2.286 32.369 0 0 0 1.396 4.032 0 0 14.767 0 0 9.509 0 4.799 -52.775 0 0 63.588 0 0 -2.292 0
54.189 -2.218 30.348 0 0 0 1.494 5.009 0 0 13.966 0 0 12.682 0 4.984 -52.454 0 0 58.777 0 0 -2.724 0
50.512 -7.202 28.326 0 0 0 1.481 5.755 0 0 13.634 0 0 15.451 0 5.08 -51.971 0 0 53.854 0 0 -3.18 0
46.872 -12.667 26.303 0 0 0 1.368 6.285 0 0 13.81 0 0 17.742 0 5.105 -51.324 0 0 48.859 0 0 -3.634 0
43.25 -18.613 24.28 0 0 0 1.148 6.602 0 0 14.513 0 0 19.514 0 5.079 -50.52 0 0 43.842 0 0 -4.056 0
39.638 -25.04 22.257 0 0 0 0.846 6.735 0 0 15.739 0 0 20.758 0 5.015 -49.586 0 0 38.868 0 0 -4.419 0
36.031 -31.947 20.233 0 0 0 0.485 6.714 0 0 17.466 0 0 21.498 0 4.934 -48.55 0 0 34.018 0 0 -4.707 0
32.426 -39.335 18.21 0 0 0 0.083 6.554 0 0 19.654 0 0 21.793 0 4.86 -47.428 0 0 29.391 0 0 -4.921 0
28.822 -47.203 16.187 0 0 0 -0.336 6.271 0 0 22.255 0 0 21.728 0 4.805 -46.253 0 0 25.094 0 0 -5.07 0
25.219 -55.552 14.163 0 0 0 -0.736 5.895 0 0 25.216 0 0 21.407 0 4.769 -45.074 0 0 21.237 0 0 -5.169 0
21.616 -64.382 12.14 0 0 0 -1.11 5.424 0 0 28.483 0 0 20.938 0 4.755 -43.916 0 0 17.92 0 0 -5.23 0
18.013 -73.693 10.117 0 0 0 -1.416 4.894 0 0 32.001 0 0 20.419 0 4.76 -42.799 0 0 15.223 0 0 -5.259 0
14.411 -83.484 8.093 0 0 0 -1.651 4.308 0 0 35.721 0 0 19.931 0 4.78 -41.744 0 0 13.195 0 0 -5.248 0
10.808 -93.756 6.07 0 0 0 -1.801 3.684 0 0 39.593 0 0 19.53 0 4.817 -40.758 0 0 11.855 0 0 -5.177 0
7.205 -104.508 4.047 0 0 0 -1.861 3.034 0 0 43.575 0 0 19.245 0 4.876 -39.853 0 0 11.195 0 0 -5.009 0
3.603 -115.741 2.023 0 0 0 -1.832 2.363 0 0 47.632 0 0 19.076 0 4.972 -39.028 0 0 11.186 0 0 -4.697 0
