HIERARCHY
ROOT Hips
{
  OFFSET 0 0 0
  CHANNELS 6 Xposition Yposition Zposition Zrotation Xrotation Yrotation
  JOINT LeftUpLeg
  {
    OFFSET 0 0 0
    CHANNELS 3 Zrotation Xrotation Yrotation
    JOINT LeftLeg
    {
      OFFSET 0 0 0
      CHANNELS 3 Zrotation Xrotation Yrotation
      JOINT LeftFoot
      {
        OFFSET 0 0 0
        CHANNELS 3 Zrotation Xrotation Yrotation
        End Site
        {
          OFFSET 0 0 0
        }
      }
    }
  }
  JOINT RightUpLeg
  {
    OFFSET 0 0 0
    CHANNELS 3 Zrotation Xrotation Yrotation
    JOINT RightLeg
    {
      OFFSET 0 0 0
      CHANNELS 3 Zrotation Xrotation Yrotation
      JOINT RightFoot
      {
        OFFSET 0 0 0
        CHANNELS 3 Zrotation Xrotation Yrotation
        End Site
        {
          OFFSET 0 0 0
        }
      }
    }
  }
}
MOTION
Frames: 100
Frame Time: 0.010367
0 -7.163 0 0 0 0 -0.41 6.463 0 0 6.407 0 0 -10.525 0 -1.219 -31.488 0 0 2.619 0 0 -1.856 0
-5.313 -5.093 2.064 0 0 0 -0.043 6.845 0 0 7.467 0 0 -10.054 0 -1.025 -31.332 0 0 3.555 0 0 -1.51 0
-11.594 -2.643 4.686 0 0 0 0.386 7.163 0 0 8.683 0 0 -9.411 0 -0.751 -31.132 0 0 4.7 0 0 -0.61 0
-18.765 0.133 7.819 0 0 0 0.871 7.396 0 0 10.075 0 0 -8.557 0 -0.408 -30.881 0 0 5.849 0 0 0.849 0
-26.668 3.144 11.374 0 0 0 1.4 7.513 0 0 11.673 0 0 -7.453 0 -0.012 -30.609 0 0 6.955 0 0 2.51 0
-35.16 6.367 15.33 0 0 0 1.963 7.483 0 0 13.516 0 0 -6.064 0 0.415 -30.371 0 0 8.145 0 0 3.828 0
-44.048 9.696 19.668 0 0 0 2.547 7.277 0 0 15.64 0 0 -4.37 0 0.861 -30.219 0 0 9.58 0 0 4.428 0
-53.229 12.914 24.412 0 0 0 3.145 6.873 0 0 18.07 0 0 -2.367 0 1.328 -30.151 0 0 11.266 0 0 4.265 0
-62.632 15.669 29.382 0 0 0 3.754 6.255 0 0 20.812 0 0 -0.088 0 1.828 -30.095 0 0 13.045 0 0 3.531 0
-72.121 17.521 34.277 0 0 0 4.368 5.417 0 0 23.85 0 0 2.393 0 2.365 -29.938 0 0 14.688 0 0 2.489 0
-81.477 18.188 38.581 0 0 0 4.977 4.365 0 0 27.144 0 0 4.951 0 2.928 -29.585 0 0 16.006 0 0 1.348 0
-90.36 17.177 41.534 0 0 0 5.564 3.112 0 0 30.635 0 0 7.421 0 3.493 -28.991 0 0 16.904 0 0 0.233 0
-98.387 -54.099 43.962 0 0 0 6.107 1.684 0 0 34.249 0 0 9.618 0 4.034 -28.172 0 0 17.383 0 0 -0.795 0
-105.559 -50.149 45.865 0 0 0 6.579 0.109 0 0 37.903 0 0 11.362 0 4.526 -27.182 0 0 17.515 0 0 -1.719 0
-111.808 -46.272 47.415 0 0 0 6.956 -1.588 0 0 41.512 0 0 12.516 0 4.95 -26.094 0 0 17.399 0 0 -2.545 0
-116.858 -42.557 48.444 0 0 0 7.214 -3.38 0 0 44.99 0 0 13.01 0 5.289 -24.97 0 0 17.13 0 0 -3.289 0
-120.562 -39.054 48.842 0 0 0 7.339 -5.247 0 0 48.257 0 0 12.854 0 5.535 -23.855 0 0 16.78 0 0 -3.965 0
-122.81 -35.752 48.607 0 0 0 7.327 -7.167 0 0 51.238 0 0 12.13 0 5.682 -22.773 0 0 16.396 0 0 -4.585 0
-123.671 -32.625 47.819 0 0 0 7.184 -9.121 0 0 53.876 0 0 10.977 0 5.736 -21.729 0 0 16 0 0 -5.159 0
-123.283 -29.642 46.545 0 0 0 6.927 -11.086 0 0 56.135 0 0 9.56 0 5.707 -20.718 0 0 15.593 0 0 -5.693 0
-121.874 -26.786 44.87 0 0 0 6.577 -13.036 0 0 57.997 0 0 8.034 0 5.611 -19.729 0 0 15.166 0 0 -6.187 0
-119.739 -24.032 42.943 0 0 0 6.157 -14.944 0 0 59.459 0 0 6.512 0 5.468 -18.741 0 0 14.699 0 0 -6.64 0
-117.203 -21.399 40.83 0 0 0 5.69 -16.782 0 0 60.527 0 0 5.053 0 5.3 -17.746 0 0 14.185 0 0 -7.05 0
-114.507 -18.879 38.693 0 0 0 5.2 -18.526 0 0 61.209 0 0 3.68 0 5.123 -16.728 0 0 13.615 0 0 -7.42 0
-111.846 -16.482 36.659 0 0 0 4.709 -20.158 0 0 61.513 0 0 2.392 0 4.95 -15.679 0 0 12.99 0 0 -7.753 0
-109.298 -14.218 34.806 0 0 0 4.236 -21.672 0 0 61.452 0 0 1.182 0 4.786 -14.597 0 0 12.317 0 0 -8.056 0
-106.938 -12.114 33.135 0 0 0 3.794 -23.067 0 0 61.037 0 0 0.042 0 4.636 -13.488 0 0 11.608 0 0 -8.336 0
-104.737 -10.191 31.622 0 0 0 3.392 -24.351 0 0 60.279 0 0 -1.024 0 4.498 -12.363 0 0 10.882 0 0 -8.598 0
-102.664 -8.47 30.113 0 0 0 3.032 -25.535 0 0 59.191 0 0 -2.008 0 4.37 -11.239 0 0 10.153 0 0 -8.848 0
-100.645 -6.96 28.496 0 0 0 2.712 -26.63 0 0 57.781 0 0 -2.895 0 4.247 -10.131 0 0 9.436 0 0 -9.086 0
-98.59 -5.66 26.648 0 0 0 2.429 -27.644 0 0 56.061 0 0 -3.672 0 4.123 -9.053 0 0 8.743 0 0 -9.312 0
-96.531 -4.562 24.597 0 0 0 2.178 -28.578 0 0 54.04 0 0 -4.331 0 4 -8.006 0 0 8.08 0 0 -9.526 0
-94.487 -3.655 22.325 0 0 0 1.958 -29.431 0 0 51.729 0 0 -4.869 0 3.879 -6.991 0 0 7.448 0 0 -9.733 0
-92.46 -2.925 19.841 0 0 0 1.767 -30.197 0 0 49.138 0 0 -5.284 0 3.76 -6.009 0 0 6.851 0 0 -9.937 0
-90.465 -2.362 17.181 0 0 0 1.603 -30.869 0 0 46.277 0 0 -5.574 0 3.644 -5.06 0 0 6.295 0 0 -10.148 0
-88.567 -1.959 14.345 0 0 0 1.466 -31.44 0 0 43.154 0 0 -5.734 0 3.535 -4.146 0 0 5.785 0 0 -10.372 0
-86.812 -1.713 11.394 0 0 0 1.354 -31.904 0 0 39.782 0 0 -5.753 0 3.436 -3.267 0 0 5.329 0 0 -10.61 0
-85.186 -1.619 8.363 0 0 0 1.266 -32.254 0 0 36.174 0 0 -5.627 0 3.346 -2.423 0 0 4.931 0 0 -10.856 0
-83.707 -1.676 5.329 0 0 0 1.199 -32.485 0 0 32.355 0 0 -5.351 0 3.266 -1.611 0 0 4.595 0 0 -11.105 0
-82.329 -1.885 2.415 0 0 0 1.152 -32.594 0 0 28.361 0 0 -4.933 0 3.193 -0.823 0 0 4.32 0 0 -11.347 0
-81.023 -2.255 -0.254 0 0 0 1.124 -32.584 0 0 24.246 0 0 -4.393 0 3.125 -0.051 0 0 4.106 0 0 -11.577 0
-79.763 -2.807 -2.508 0 0 0 1.114 -32.459 0 0 20.087 0 0 -3.774 0 3.06 0.715 0 0 3.956 0 0 -11.787 0
-78.508 -3.562 -4.231 0 0 0 1.124 -32.233 0 0 15.988 0 0 -3.132 0 2.995 1.481 0 0 3.873 0 0 -11.973 0
-77.217 -4.552 -5.297 0 0 0 1.154 -31.928 0 0 12.071 0 0 -2.536 0 2.927 2.25 0 0 3.868 0 0 -12.128 0
-75.799 -5.768 -5.708 0 0 0 1.207 -31.573 0 0 8.474 0 0 -2.045 0 2.85 3.015 0 0 3.954 0 0 -12.249 0
-74.203 -7.273 -5.484 0 0 0 1.279 -31.203 0 0 5.336 0 0 -1.698 0 2.761 3.765 0 0 4.148 0 0 -12.33 0
-72.346 -9.088 -4.733 0 0 0 1.36 -30.857 0 0 2.794 0 0 -1.503 0 2.654 4.486 0 0 4.463 0 0 -12.362 0
-70.137 -10.158 -3.535 0 0 0 1.432 -30.568 0 0 0.959 0 0 -1.453 0 2.523 5.165 0 0 4.913 0 0 -12.338 0
-67.464 -9.765 -1.964 0 0 0 1.473 -30.357 0 0 -0.091 0 0 -1.525 0 2.361 5.791 0 0 5.506 0 0 -12.247 0
-64.215 -9.284 -0.04 0 0 0 1.46 -30.226 0 0 -0.345 0 0 -1.672 0 2.161 6.358 0 0 6.246 0 0 -12.075 0
-60.267 -8.311 2.278 0 0 0 1.375 -30.148 0 0 0.119 0 0 -1.795 0 1.915 6.863 0 0 7.139 0 0 -11.806 0
-55.495 -6.445 5.006 0 0 0 1.214 -30.086 0 0 1.119 0 0 -1.718 0 1.615 7.3 0 0 8.191 0 0 -11.418 0
-49.817 -4.453 8.145 0 0 0 0.958 -29.984 0 0 2.42 0 0 -1.239 0 1.256 7.658 0 0 9.414 0 0 -10.88 0
-43.15 -2.308 11.648 0 0 0 0.617 -29.817 0 0 3.759 0 0 -0.23 0 0.833 7.917 0 0 10.828 0 0 -10.152 0
-35.542 0.034 15.517 0 0 0 0.204 -29.59 0 0 4.988 0 0 1.18 0 0.35 8.052 0 0 12.463 0 0 -9.188 0
-27.067 2.681 19.758 0 0 0 -0.263 -29.341 0 0 6.154 0 0 2.585 0 -0.187 8.035 0 0 14.354 0 0 -7.942 0
-17.879 5.458 24.431 0 0 0 -0.761 -29.121 0 0 7.435 0 0 3.545 0 -0.767 7.84 0 0 16.537 0 0 -6.376 0
-8.12 8.336 29.637 0 0 0 -1.28 -28.956 0 0 8.946 0 0 3.838 0 -1.38 7.448 0 0 19.038 0 0 -4.466 0
2.13 11.069 35.309 0 0 0 -1.822 -28.816 0 0 10.624 0 0 3.501 0 -2.021 6.845 0 0 21.86 0 0 -2.215 0
12.675 12.993 41.118 0 0 0 -2.388 -28.622 0 0 12.28 0 0 2.719 0 -2.679 6.024 0 0 24.979 0 0 0.319 0
23.336 13.583 46.429 0 0 0 -2.969 -28.285 0 0 13.713 0 0 1.705 0 -3.346 4.986 0 0 28.349 0 0 3.01 0
33.767 12.408 50.443 0 0 0 -3.544 -27.748 0 0 14.788 0 0 0.623 0 -4.004 3.744 0 0 31.91 0 0 5.67 0
42.81 -51.434 53.62 0 0 0 -4.087 -27.003 0 0 15.465 0 0 -0.426 0 -4.63 2.319 0 0 35.593 0 0 8.075 0
50.466 -47.622 55.96 0 0 0 -4.576 -26.087 0 0 15.781 0 0 -1.391 0 -5.196 0.734 0 0 39.324 0 0 10.005 0
57.061 -43.869 57.931 0 0 0 -4.988 -25.057 0 0 15.818 0 0 -2.261 0 -5.676 -0.982 0 0 43.02 0 0 11.297 0
62.38 -40.244 59.39 0 0 0 -5.31 -23.97 0 0 15.664 0 0 -3.042 0 -6.042 -2.799 0 0 46.587 0 0 11.867 0
66.231 -36.778 60.226 0 0 0 -5.531 -22.869 0 0 15.387 0 0 -3.745 0 -6.274 -4.691 0 0 49.929 0 0 11.735 0
68.563 -33.469 60.408 0 0 0 -5.649 -21.778 0 0 15.03 0 0 -4.383 0 -6.363 -6.632 0 0 52.959 0 0 11.018 0
69.401 -30.301 59.961 0 0 0 -5.667 -20.708 0 0 14.619 0 0 -4.963 0 -6.31 -8.604 0 0 55.617 0 0 9.893 0
68.892 -27.266 58.909 0 0 0 -5.596 -19.662 0 0 14.164 0 0 -5.491 0 -6.132 -10.588 0 0 57.871 0 0 8.544 0
67.251 -24.363 57.34 0 0 0 -5.451 -18.638 0 0 13.674 0 0 -5.971 0 -5.849 -12.566 0 0 59.714 0 0 7.12 0
64.799 -21.597 55.366 0 0 0 -5.254 -17.628 0 0 13.149 0 0 -6.406 0 -5.491 -14.514 0 0 61.15 0 0 5.715 0
61.894 -18.976 53.18 0 0 0 -5.029 -16.621 0 0 12.593 0 0 -6.797 0 -5.088 -16.406 0 0 62.188 0 0 4.367 0
58.837 -16.508 50.924 0 0 0 -4.796 -15.606 0 0 12.004 0 0 -7.147 0 -4.667 -18.22 0 0 62.836 0 0 3.085 0
55.841 -14.198 48.748 0 0 0 -4.569 -14.574 0 0 11.384 0 0 -7.458 0 -4.251 -19.935 0 0 63.103 0 0 1.868 0
53.014 -12.049 46.769 0 0 0 -4.355 -13.519 0 0 10.737 0 0 -7.735 0 -3.853 -21.543 0 0 63 0 0 0.71 0
50.374 -10.074 44.961 0 0 0 -4.155 -12.446 0 0 10.07 0 0 -7.983 0 -3.483 -23.042 0 0 62.538 0 0 -0.387 0
47.876 -8.286 43.283 0 0 0 -3.966 -11.364 0 0 9.396 0 0 -8.209 0 -3.144 -24.437 0 0 61.734 0 0 -1.418 0
45.446 -6.697 41.571 0 0 0 -3.783 -10.289 0 0 8.726 0 0 -8.42 0 -2.835 -25.739 0 0 60.602 0 0 -2.371 0
43.026 -5.307 39.735 0 0 0 -3.602 -9.233 0 0 8.073 0 0 -8.623 0 -2.554 -26.953 0 0 59.154 0 0 -3.237 0
40.601 -4.118 37.665 0 0 0 -3.422 -8.208 0 0 7.447 0 0 -8.821 0 -2.3 -28.084 0 0 57.405 0 0 -4.004 0
38.143 -3.117 35.293 0 0 0 -3.241 -7.22 0 0 6.852 0 0 -9.019 0 -2.069 -29.134 0 0 55.363 0 0 -4.66 0
35.702 -2.294 32.622 0 0 0 -3.062 -6.271 0 0 6.293 0 0 -9.218 0 -1.86 -30.096 0 0 53.038 0 0 -5.193 0
33.294 -1.637 29.667 0 0 0 -2.886 -5.36 0 0 5.77 0 0 -9.416 0 -1.673 -30.966 0 0 50.439 0 0 -5.595 0
31.013 -1.138 26.478 0 0 0 -2.719 -4.485 0 0 5.286 0 0 -9.615 0 -1.506 -31.734 0 0 47.575 0 0 -5.862 0
28.861 -0.787 23.093 0 0 0 -2.561 -3.645 0 0 4.844 0 0 -9.813 0 -1.361 -32.395 0 0 44.455 0 0 -5.988 0
26.917 -0.579 19.563 0 0 0 -2.417 -2.837 0 0 4.445 0 0 -10.01 0 -1.236 -32.941 0 0 41.091 0 0 -5.967 0
25.182 -0.507 15.956 0 0 0 -2.287 -2.057 0 0 4.09 0 0 -10.207 0 -1.133 -33.364 0 0 37.497 0 0 -5.796 0
23.628 -0.568 12.386 0 0 0 -2.169 -1.298 0 0 3.78 0 0 -10.4 0 -1.054 -33.659 0 0 33.697 0 0 -5.473 0
22.239 -0.765 8.978 0 0 0 -2.062 -0.552 0 0 3.515 0 0 -10.587 0 -1 -33.825 0 0 29.727 0 0 -5.009 0
20.984 -1.111 5.858 0 0 0 -1.964 0.188 0 0 3.297 0 0 -10.761 0 -0.973 -33.86 0 0 25.646 0 0 -4.43 0
19.82 -1.619 3.134 0 0 0 -1.872 0.927 0 0 3.13 0 0 -10.917 0 -0.971 -33.771 0 0 21.536 0 0 -3.776 0
18.686 -2.313 0.919 0 0 0 -1.782 1.665 0 0 3.028 0 0 -11.051 0 -0.996 -33.573 0 0 17.504 0 0 -3.107 0
17.536 -3.215 -0.795 0 0 0 -1.69 2.396 0 0 3.005 0 0 -11.158 0 -1.043 -33.289 0 0 13.679 0 0 -2.494 0
16.256 -4.346 -1.986 0 0 0 -1.589 3.109 0 0 3.083 0 0 -11.234 0 -1.11 -32.953 0 0 10.2 0 0 -2.004 0
14.787 -5.731 -2.699 0 0 0 -1.475 3.791 0 0 3.281 0 0 -11.274 0 -1.192 -32.603 0 0 7.205 0 0 -1.683 0
12.99 -7.388 -2.994 0 0 0 -1.339 4.429 0 0 3.615 0 0 -11.27 0 -1.274 -32.276 0 0 4.822 0 0 -1.545 0
10.748 -9.222 -2.9 0 0 0 -1.173 5.016 0 0 4.094 0 0 -11.21 0 -1.34 -31.998 0 0 3.15 0 0 -1.569 0
7.933 -9.374 -2.434 0 0 0 -0.969 5.548 0 0 4.72 0 0 -11.078 0 -1.366 -31.782 0 0 2.242 0 0 -1.702 0
4.387 -8.828 -1.49 0 0 0 -0.717 6.03 0 0 5.491 0 0 -10.857 0 -1.331 -31.617 0 0 2.083 0 0 -1.85 0
